EUTELSAT QUANTUM        
1 49056U 21069B   25330.06850240  .00000145  00000+0  00000+0 0  9998
2 49056   0.0194  24.7839 0003189 234.6477 238.1999  1.00271582 15897
EUTELSAT KONNECT VHTS   
1 53765U 22110A   25329.08404906  .00000036  00000+0  00000+0 0  9991
2 53765   0.0601 108.7759 0002608 106.1120 242.3858  1.00268761  4781
EUTELSAT HOTBIRD 13F    
1 54048U 22134A   25329.65680551  .00000106  00000+0  00000+0 0  9995
2 54048   0.0566 287.0508 0001916  80.2813 306.9983  1.00270832 11338
EUTELSAT HOTBIRD 13G    
1 54225U 22146A   25329.65680551  .00000107  00000+0  00000+0 0  9996
2 54225   0.0508 241.8234 0002207 291.2507 141.2535  1.00270846  5424
EUTELSAT 10B            
1 54259U 22157A   25330.15556828  .00000088  00000+0  00000+0 0  9999
2 54259   0.0580 104.6541 0001036  46.5286 340.2181  1.00270148 10993
EUTELSAT 36D            
1 59346U 24059A   25330.08516823  .00000175  00000+0  00000+0 0  9994
2 59346   0.0159 320.2144 0000227  46.0517 125.5559  1.00271975  6116
